{
    "links": {
        "self": "http://www.neowsapp.com/rest/v1/neo/3742880?api_key=iIulBulltgU6a56xZRHN4H3l9WmuAYTsLGpBGhQ2"
    },
    "id": "3742880",
    "neo_reference_id": "3742880",
    "name": "(2016 CC137)",
    "designation": "2016 CC137",
    "nasa_jpl_url": "http://ssd.jpl.nasa.gov/sbdb.cgi?sstr=3742880",
    "absolute_magnitude_h": 24.5,
    "estimated_diameter": {
        "kilometers": {
            "estimated_diameter_min": 0.0334622374,
            "estimated_diameter_max": 0.0748238376
        },
        "meters": {
            "estimated_diameter_min": 33.4622374455,
            "estimated_diameter_max": 74.8238376074
        },
        "miles": {
            "estimated_diameter_min": 0.0207924639,
            "estimated_diameter_max": 0.0464933628
        },
        "feet": {
            "estimated_diameter_min": 109.7842471007,
            "estimated_diameter_max": 245.4850393757
        }
    },
    "is_potentially_hazardous_asteroid": false,
    "close_approach_data": [
        {
            "close_approach_date": "2016-02-09",
            "close_approach_date_full": "2016-Feb-09 03:26",
            "epoch_date_close_approach": 1454988360000,
            "relative_velocity": {
                "kilometers_per_second": "23.0092292189",
                "kilometers_per_hour": "82833.2251881955",
                "miles_per_hour": "51469.344839854"
            },
            "miss_distance": {
                "astronomical": "0.1009424055",
                "lunar": "39.2665957395",
                "kilometers": "15100768.855476285",
                "miles": "9383182.662831333"
            },
            "orbiting_body": "Earth"
        }
    ],
    "orbital_data": {
        "orbit_id": "4",
        "orbit_determination_date": "2017-04-06 08:28:28",
        "first_observation_date": "2016-02-08",
        "last_observation_date": "2016-02-12",
        "data_arc_in_days": 4,
        "observations_used": 41,
        "orbit_uncertainty": "9",
        "minimum_orbit_intersection": ".100559",
        "jupiter_tisserand_invariant": "4.287",
        "epoch_osculation": "2457427.5",
        "eccentricity": ".2608350047375365",
        "semi_major_axis": "1.470202509697141",
        "inclination": "43.20665201986142",
        "ascending_node_longitude": "139.6069632611523",
        "orbital_period": "651.1246942818656",
        "perihelion_distance": "1.086722231115149",
        "perihelion_argument": "3.45426646720562",
        "aphelion_distance": "1.853682788279132",
        "perihelion_time": "2457430.663121583681",
        "mean_anomaly": "358.2511433215091",
        "mean_motion": ".5528894897728445",
        "equinox": "J2000",
        "orbit_class": {
            "orbit_class_type": "AMO",
            "orbit_class_description": "Near-Earth asteroid orbits similar to that of 1221 Amor",
            "orbit_class_range": "1.017 AU < q (perihelion) < 1.3 AU"
        }
    },
    "is_sentry_object": false
}